{
  "type": "FeatureCollection",
  "features": [
    {
      "type": "Feature",
      "properties": {
        "norad_id": 31433,
        "name": "FENGYUN 1C DEB",
        "group": "fengyun-1c-debris",
        "lat": 11.701244936707136,
        "lon": -114.93931797820656,
        "alt_km": 744.5485928689732,
        "timestamp": "2025-12-09T04:51:47.775417+00:00",
        "meta_object_name": "FENGYUN 1C DEB",
        "meta_object_id": "1999-025BTV",
        "meta_epoch": "2025-12-08T07:29:43.501056",
        "meta_mean_motion": 14.25346106,
        "meta_eccentricity": 0.01002411,
        "meta_inclination": 98.4099,
        "meta_ra_of_asc_node": 245.9627,
        "meta_arg_of_pericenter": 42.0932,
        "meta_mean_anomaly": 84.4796,
        "meta_ephemeris_type": 0,
        "meta_classification_type": "U",
        "meta_norad_cat_id": 31433,
        "meta_element_set_no": 999,
        "meta_rev_at_epoch": 95489,
        "meta_bstar": 0.0029428697,
        "meta_mean_motion_dot": 7.274e-05,
        "meta_mean_motion_ddot": 0,
        "tle_line1": "1 31433U 99025BTV 25342.31230904  .00007274  00000+0  29429-2 0  9994",
        "tle_line2": "2 31433  98.4099 245.9627 0100241  42.0932  84.4796 14.25346106954893"
      },
      "geometry": {
        "type": "Point",
        "coordinates": [
          -114.93931797820656,
          11.701244936707136
        ]
      }
    },
    {
      "type": "Feature",
      "properties": {
        "norad_id": 31435,
        "name": "FENGYUN 1C DEB",
        "group": "fengyun-1c-debris",
        "lat": 80.91021840009869,
        "lon": 58.83539553864227,
        "alt_km": 723.3772812925881,
        "timestamp": "2025-12-09T04:51:47.775427+00:00",
        "meta_object_name": "FENGYUN 1C DEB",
        "meta_object_id": "1999-025BTX",
        "meta_epoch": "2025-12-08T18:31:25.574592",
        "meta_mean_motion": 14.53421369,
        "meta_eccentricity": 0.0148842,
        "meta_inclination": 99.0363,
        "meta_ra_of_asc_node": 154.2888,
        "meta_arg_of_pericenter": 191.9779,
        "meta_mean_anomaly": 167.7861,
        "meta_ephemeris_type": 0,
        "meta_classification_type": "U",
        "meta_norad_cat_id": 31435,
        "meta_element_set_no": 999,
        "meta_rev_at_epoch": 98315,
        "meta_bstar": 0.00054622,
        "meta_mean_motion_dot": 2.573e-05,
        "meta_mean_motion_ddot": 0,
        "tle_line1": "1 31435U 99025BTX 25342.77182378  .00002573  00000+0  54622-3 0  9998",
        "tle_line2": "2 31435  99.0363 154.2888 0148842 191.9779 167.7861 14.53421369983154"
      },
      "geometry": {
        "type": "Point",
        "coordinates": [
          58.83539553864227,
          80.91021840009869
        ]
      }
    },
    {
      "type": "Feature",
      "properties": {
        "norad_id": 31436,
        "name": "FENGYUN 1C DEB",
        "group": "fengyun-1c-debris",
        "lat": -75.38366789956842,
        "lon": -21.15054960539366,
        "alt_km": 564.7877815324227,
        "timestamp": "2025-12-09T04:51:47.775448+00:00",
        "meta_object_name": "FENGYUN 1C DEB",
        "meta_object_id": "1999-025BTY",
        "meta_epoch": "2025-12-08T13:28:51.661920",
        "meta_mean_motion": 14.93022785,
        "meta_eccentricity": 0.0044316,
        "meta_inclination": 98.882,
        "meta_ra_of_asc_node": 194.9716,
        "meta_arg_of_pericenter": 256.2521,
        "meta_mean_anomaly": 159.099,
        "meta_ephemeris_type": 0,
        "meta_classification_type": "U",
        "meta_norad_cat_id": 31436,
        "meta_element_set_no": 999,
        "meta_rev_at_epoch": 96814,
        "meta_bstar": 0.005826,
        "meta_mean_motion_dot": 0.00062201,
        "meta_mean_motion_ddot": 0,
        "tle_line1": "1 31436U 99025BTY 25342.56170905  .00062201  00000+0  58260-2 0  9994",
        "tle_line2": "2 31436  98.8820 194.9716 0044316 256.2521 159.0990 14.93022785968144"
      },
      "geometry": {
        "type": "Point",
        "coordinates": [
          -21.15054960539366,
          -75.38366789956842
        ]
      }
    },
    {
      "type": "Feature",
      "properties": {
        "norad_id": 31437,
        "name": "FENGYUN 1C DEB",
        "group": "fengyun-1c-debris",
        "lat": 60.97227739831306,
        "lon": 47.79561699950753,
        "alt_km": 754.7771990886868,
        "timestamp": "2025-12-09T04:51:47.775460+00:00",
        "meta_object_name": "FENGYUN 1C DEB",
        "meta_object_id": "1999-025BTZ",
        "meta_epoch": "2025-12-03T03:43:35.676192",
        "meta_mean_motion": 14.42268403,
        "meta_eccentricity": 0.00147172,
        "meta_inclination": 98.8658,
        "meta_ra_of_asc_node": 57.8503,
        "meta_arg_of_pericenter": 275.1536,
        "meta_mean_anomaly": 84.7972,
        "meta_ephemeris_type": 0,
        "meta_classification_type": "U",
        "meta_norad_cat_id": 31437,
        "meta_element_set_no": 999,
        "meta_rev_at_epoch": 96372,
        "meta_bstar": 0.0031577834,
        "meta_mean_motion_dot": 0.00010397,
        "meta_mean_motion_ddot": 0,
        "tle_line1": "1 31437U 99025BTZ 25337.15527403  .00010397  00000+0  31578-2 0  9995",
        "tle_line2": "2 31437  98.8658  57.8503 0014717 275.1536  84.7972 14.42268403963729"
      },
      "geometry": {
        "type": "Point",
        "coordinates": [
          47.79561699950753,
          60.97227739831306
        ]
      }
    },
    {
      "type": "Feature",
      "properties": {
        "norad_id": 31439,
        "name": "FENGYUN 1C DEB",
        "group": "fengyun-1c-debris",
        "lat": 79.45231632582183,
        "lon": -68.13593328147196,
        "alt_km": 895.3689135468749,
        "timestamp": "2025-12-09T04:51:47.775470+00:00",
        "meta_object_name": "FENGYUN 1C DEB",
        "meta_object_id": "1999-025BUB",
        "meta_epoch": "2025-12-08T18:59:20.339232",
        "meta_mean_motion": 13.95570536,
        "meta_eccentricity": 0.0137728,
        "meta_inclination": 98.917,
        "meta_ra_of_asc_node": 348.9419,
        "meta_arg_of_pericenter": 172.6232,
        "meta_mean_anomaly": 7.4049,
        "meta_ephemeris_type": 0,
        "meta_classification_type": "U",
        "meta_norad_cat_id": 31439,
        "meta_element_set_no": 999,
        "meta_rev_at_epoch": 63177,
        "meta_bstar": 0.0011065,
        "meta_mean_motion_dot": 1.587e-05,
        "meta_mean_motion_ddot": 0,
        "tle_line1": "1 31439U 99025BUB 25342.79120763  .00001587  00000+0  11065-2 0  9991",
        "tle_line2": "2 31439  98.9170 348.9419 0137728 172.6232   7.4049 13.95570536631777"
      },
      "geometry": {
        "type": "Point",
        "coordinates": [
          -68.13593328147196,
          79.45231632582183
        ]
      }
    },
    {
      "type": "Feature",
      "properties": {
        "norad_id": 31440,
        "name": "FENGYUN 1C DEB",
        "group": "fengyun-1c-debris",
        "lat": -43.37912428123268,
        "lon": -117.21940072589406,
        "alt_km": 792.8941288135684,
        "timestamp": "2025-12-09T04:51:47.775480+00:00",
        "meta_object_name": "FENGYUN 1C DEB",
        "meta_object_id": "1999-025BUC",
        "meta_epoch": "2025-12-05T04:32:40.273728",
        "meta_mean_motion": 14.36571049,
        "meta_eccentricity": 0.00367226,
        "meta_inclination": 98.7465,
        "meta_ra_of_asc_node": 67.0707,
        "meta_arg_of_pericenter": 5.5428,
        "meta_mean_anomaly": 354.6157,
        "meta_ephemeris_type": 0,
        "meta_classification_type": "U",
        "meta_norad_cat_id": 31440,
        "meta_element_set_no": 999,
        "meta_rev_at_epoch": 96217,
        "meta_bstar": 0.0037851683,
        "meta_mean_motion_dot": 0.00011182,
        "meta_mean_motion_ddot": 0,
        "tle_line1": "1 31440U 99025BUC 25339.18935502  .00011182  00000+0  37852-2 0  9991",
        "tle_line2": "2 31440  98.7465  67.0707 0036722   5.5428 354.6157 14.36571049962170"
      },
      "geometry": {
        "type": "Point",
        "coordinates": [
          -117.21940072589406,
          -43.37912428123268
        ]
      }
    },
    {
      "type": "Feature",
      "properties": {
        "norad_id": 31441,
        "name": "FENGYUN 1C DEB",
        "group": "fengyun-1c-debris",
        "lat": 80.14068185775581,
        "lon": 96.2337304383228,
        "alt_km": 659.1748582149021,
        "timestamp": "2025-12-09T04:51:47.775490+00:00",
        "meta_object_name": "FENGYUN 1C DEB",
        "meta_object_id": "1999-025BUD",
        "meta_epoch": "2025-12-07T08:28:41.429856",
        "meta_mean_motion": 14.7453624,
        "meta_eccentricity": 0.01049906,
        "meta_inclination": 99.3118,
        "meta_ra_of_asc_node": 203.3613,
        "meta_arg_of_pericenter": 352.0587,
        "meta_mean_anomaly": 7.8951,
        "meta_ephemeris_type": 0,
        "meta_classification_type": "U",
        "meta_norad_cat_id": 31441,
        "meta_element_set_no": 999,
        "meta_rev_at_epoch": 64011,
        "meta_bstar": 0.0080507132,
        "meta_mean_motion_dot": 0.0005895,
        "meta_mean_motion_ddot": 0,
        "tle_line1": "1 31441U 99025BUD 25341.35325729  .00058950  00000+0  80507-2 0  9997",
        "tle_line2": "2 31441  99.3118 203.3613 0104990 352.0587   7.8951 14.74536240640115"
      },
      "geometry": {
        "type": "Point",
        "coordinates": [
          96.2337304383228,
          80.14068185775581
        ]
      }
    }
  ]
}